RAW FETCH — eq.tidal-manila.phase.moondist.confirm1 (orchestrator data path, 2026-06-12)
Registered protocol: docs/REGISTRATION_EQ_MOONDIST_CONFIRM.md sha256 9b0626c12f6f273b
Fetch URL params: COMMAND=301, EPHEM_TYPE=OBSERVER, CENTER='coord@399',
SITE_COORD='121.0359,14.5794,0.02', START_TIME='2026-06-12 13:00',
STOP_TIME='2026-09-05 13:00', STEP_SIZE=1d, QUANTITIES=20, format=text
API VERSION: 1.2 | Ephemeris generated: Thu Jun 11 14:40:09 2026 Pasadena
Target: Moon (301) {source: DE441} | Center: Earth (399) user site
Center geodetic : 121.0359, 14.5794, .020 (E-lon, Lat, Alt km)
EOP file: eop.260610.p260906 | EOP coverage: DATA-BASED to 2026-JUN-10, PREDICTS-> 2026-SEP-05
Units: 1 au = 149597870.700 km | delta in AU, deldot in km/s
Solar/lunar presence flags between time and delta column preserved as-is.
$$SOE
 2026-Jun-12 13:00     0.00245876385951  -0.0240940
 2026-Jun-13 13:00     0.00243182550880   0.0895967
 2026-Jun-14 13:00     0.00241440883855   0.2020996
 2026-Jun-15 13:00     0.00240829809189   0.3044209
 2026-Jun-16 13:00     0.00241398198063   0.3880939
 2026-Jun-17 13:00     0.00243056410479   0.4467620
 2026-Jun-18 13:00  m  0.00245597876767   0.4771474
 2026-Jun-19 13:00  m  0.00248742798513   0.4791145
 2026-Jun-20 13:00  m  0.00252188853172   0.4550075
 2026-Jun-21 13:00  m  0.00255655096620   0.4086950
 2026-Jun-22 13:00  m  0.00258911498157   0.3446987
 2026-Jun-23 13:00  m  0.00261792912407   0.2675906
 2026-Jun-24 13:00  m  0.00264200129690   0.1816672
 2026-Jun-25 13:00  m  0.00266091892231   0.0908271
 2026-Jun-26 13:00  m  0.00267471520192  -0.0014339
 2026-Jun-27 13:00  m  0.00268371090383  -0.0919803
 2026-Jun-28 13:00  m  0.00268835494352  -0.1779869
 2026-Jun-29 13:00  m  0.00268908297396  -0.2569004
 2026-Jun-30 13:00  m  0.00268621029954  -0.3264140
 2026-Jul-01 13:00  m  0.00267987212168  -0.3844468
 2026-Jul-02 13:00  m  0.00267001932655  -0.4291202
 2026-Jul-03 13:00     0.00265647159676  -0.4587265
 2026-Jul-04 13:00     0.00263902227993  -0.4716988
 2026-Jul-05 13:00     0.00261758215733  -0.4666038
 2026-Jul-06 13:00     0.00259234258617  -0.4421923
 2026-Jul-07 13:00     0.00256393226669  -0.3975523
 2026-Jul-08 13:00     0.00253353565392  -0.3324025
 2026-Jul-09 13:00     0.00250293539599  -0.2475363
 2026-Jul-10 13:00     0.00247443960996  -0.1453601
 2026-Jul-11 13:00     0.00245066471666  -0.0303639
 2026-Jul-12 13:00     0.00243417481185   0.0907377
 2026-Jul-13 13:00     0.00242703087611   0.2094630
 2026-Jul-14 13:00     0.00243036036854   0.3166959
 2026-Jul-15 13:00     0.00244408320524   0.4042230
 2026-Jul-16 13:00     0.00246689210263   0.4661209
 2026-Jul-17 13:00     0.00249649274868   0.4994813
 2026-Jul-18 13:00  m  0.00253001545140   0.5043178
 2026-Jul-19 13:00  m  0.00256446848862   0.4828834
 2026-Jul-20 13:00  m  0.00259712448832   0.4387895
 2026-Jul-21 13:00  m  0.00262578426498   0.3762369
 2026-Jul-22 13:00  m  0.00264891150567   0.2994969
 2026-Jul-23 13:00  m  0.00266565936066   0.2126418
 2026-Jul-24 13:00  m  0.00267581783505   0.1194584
 2026-Jul-25 13:00  m  0.00267970786321   0.0234659
 2026-Jul-26 13:00  m  0.00267804214535  -0.0720239
 2026-Jul-27 13:00  m  0.00267176873043  -0.1638517
 2026-Jul-28 13:00  m  0.00266191227248  -0.2489827
 2026-Jul-29 13:00  m  0.00264942911260  -0.3245177
 2026-Jul-30 13:00  m  0.00263509387078  -0.3877369
 2026-Jul-31 13:00  m  0.00261943470275  -0.4361631
 2026-Aug-01 13:00  m  0.00260272994463  -0.4676262
 2026-Aug-02 13:00  m  0.00258507008673  -0.4803211
 2026-Aug-03 13:00     0.00256647713737  -0.4728652
 2026-Aug-04 13:00     0.00254706085157  -0.4443810
 2026-Aug-05 13:00     0.00252718045963  -0.3946394
 2026-Aug-06 13:00     0.00250757328126  -0.3242936
 2026-Aug-07 13:00     0.00248940957025  -0.2351978
 2026-Aug-08 13:00     0.00247423868354  -0.1307424
 2026-Aug-09 13:00     0.00246380907727  -0.0160609
 2026-Aug-10 13:00     0.00245977632827   0.1020810
 2026-Aug-11 13:00     0.00246335489096   0.2158547
 2026-Aug-12 13:00     0.00247500437296   0.3173637
 2026-Aug-13 13:00     0.00249424665162   0.3998045
 2026-Aug-14 13:00     0.00251967361055   0.4584075
 2026-Aug-15 13:00     0.00254914052514   0.4908621
 2026-Aug-16 13:00     0.00258008153133   0.4971736
 2026-Aug-17 13:00  m  0.00260985971919   0.4791328
 2026-Aug-18 13:00  m  0.00263607798109   0.4396573
 2026-Aug-19 13:00  m  0.00265680950091   0.3822151
 2026-Aug-20 13:00  m  0.00267073790691   0.3104270
 2026-Aug-21 13:00  m  0.00267721592183   0.2278548
 2026-Aug-22 13:00  m  0.00267625759187   0.1379375
 2026-Aug-23 13:00  m  0.00266847766026   0.0440172
 2026-Aug-24 13:00  m  0.00265498761865  -0.0505947
 2026-Aug-25 13:00  m  0.00263725525514  -0.1425584
 2026-Aug-26 13:00  m  0.00261693531020  -0.2284880
 2026-Aug-27 13:00  m  0.00259568374786  -0.3050005
 2026-Aug-28 13:00  m  0.00257497588879  -0.3688371
 2026-Aug-29 13:00  m  0.00255595590518  -0.4170424
 2026-Aug-30 13:00  m  0.00253934720992  -0.4471630
 2026-Aug-31 13:00  m  0.00252544605694  -0.4574229
 2026-Sep-01 13:00  m  0.00251420367985  -0.4468445
 2026-Sep-02 13:00     0.00250537986553  -0.4153139
 2026-Sep-03 13:00     0.00249873051253  -0.3636195
 2026-Sep-04 13:00     0.00249418037099  -0.2934985
 2026-Sep-05 13:00     0.00249193316570  -0.2077079
$$EOE
